{
  "type": "FeatureCollection",
  "features": [
    {
      "type": "Feature",
      "properties": {
        "OBJECT_NAME": "INTELSAT 10-02",
        "OBJECT_ID": "2004-022A",
        "EPOCH": "2025-11-30T01:51:08.294976",
        "MEAN_MOTION": 1.00270297,
        "ECCENTRICITY": 9.6e-05,
        "INCLINATION": 0.0342,
        "RA_OF_ASC_NODE": 82.6896,
        "ARG_OF_PERICENTER": 186.6224,
        "MEAN_ANOMALY": 186.7022,
        "EPHEMERIS_TYPE": 0,
        "CLASSIFICATION_TYPE": "U",
        "NORAD_CAT_ID": 28358,
        "ELEMENT_SET_NO": 999,
        "REV_AT_EPOCH": 7856,
        "BSTAR": 0,
        "MEAN_MOTION_DOT": 1e-07,
        "MEAN_MOTION_DDOT": 0,
        "norad_id": 28358,
        "name": "INTELSAT 10-02",
        "group": "intelsat",
        "longitude_deg": NaN,
        "latitude_deg": NaN,
        "alt_km": NaN,
        "orbit_class": "HEO",
        "timestamp": "2025-11-30T09:33:02.501071+00:00"
      },
      "geometry": {
        "type": "Point",
        "coordinates": [
          NaN,
          NaN
        ]
      }
    },
    {
      "type": "Feature",
      "properties": {
        "OBJECT_NAME": "XM-3 (RHYTHM)",
        "OBJECT_ID": "2005-008A",
        "EPOCH": "2025-11-29T21:33:17.993088",
        "MEAN_MOTION": 0.98955083,
        "ECCENTRICITY": 7.67e-05,
        "INCLINATION": 0.1381,
        "RA_OF_ASC_NODE": 80.3978,
        "ARG_OF_PERICENTER": 280.0026,
        "MEAN_ANOMALY": 207.1813,
        "EPHEMERIS_TYPE": 0,
        "CLASSIFICATION_TYPE": "U",
        "NORAD_CAT_ID": 28626,
        "ELEMENT_SET_NO": 999,
        "REV_AT_EPOCH": 4062,
        "BSTAR": 0,
        "MEAN_MOTION_DOT": -1.7e-06,
        "MEAN_MOTION_DDOT": 0,
        "norad_id": 28626,
        "name": "XM-3 (RHYTHM)",
        "group": "intelsat",
        "longitude_deg": NaN,
        "latitude_deg": NaN,
        "alt_km": NaN,
        "orbit_class": "HEO",
        "timestamp": "2025-11-30T09:33:02.501210+00:00"
      },
      "geometry": {
        "type": "Point",
        "coordinates": [
          NaN,
          NaN
        ]
      }
    },
    {
      "type": "Feature",
      "properties": {
        "OBJECT_NAME": "DIRECTV 8",
        "OBJECT_ID": "2005-019A",
        "EPOCH": "2025-11-30T01:17:34.012032",
        "MEAN_MOTION": 1.00271187,
        "ECCENTRICITY": 0.0003111,
        "INCLINATION": 0.0317,
        "RA_OF_ASC_NODE": 83.9247,
        "ARG_OF_PERICENTER": 169.3287,
        "MEAN_ANOMALY": 76.299,
        "EPHEMERIS_TYPE": 0,
        "CLASSIFICATION_TYPE": "U",
        "NORAD_CAT_ID": 28659,
        "ELEMENT_SET_NO": 999,
        "REV_AT_EPOCH": 7507,
        "BSTAR": 0,
        "MEAN_MOTION_DOT": 2.2e-07,
        "MEAN_MOTION_DDOT": 0,
        "norad_id": 28659,
        "name": "DIRECTV 8",
        "group": "intelsat",
        "longitude_deg": NaN,
        "latitude_deg": NaN,
        "alt_km": NaN,
        "orbit_class": "HEO",
        "timestamp": "2025-11-30T09:33:02.501232+00:00"
      },
      "geometry": {
        "type": "Point",
        "coordinates": [
          NaN,
          NaN
        ]
      }
    },
    {
      "type": "Feature",
      "properties": {
        "OBJECT_NAME": "GALAXY 28 (G-28)",
        "OBJECT_ID": "2005-022A",
        "EPOCH": "2025-11-30T03:08:57.536736",
        "MEAN_MOTION": 1.00271072,
        "ECCENTRICITY": 0.0002652,
        "INCLINATION": 2.7864,
        "RA_OF_ASC_NODE": 81.4235,
        "ARG_OF_PERICENTER": 177.7033,
        "MEAN_ANOMALY": 128.6735,
        "EPHEMERIS_TYPE": 0,
        "CLASSIFICATION_TYPE": "U",
        "NORAD_CAT_ID": 28702,
        "ELEMENT_SET_NO": 999,
        "REV_AT_EPOCH": 4997,
        "BSTAR": 0,
        "MEAN_MOTION_DOT": -1.65e-06,
        "MEAN_MOTION_DDOT": 0,
        "norad_id": 28702,
        "name": "GALAXY 28 (G-28)",
        "group": "intelsat",
        "longitude_deg": NaN,
        "latitude_deg": NaN,
        "alt_km": NaN,
        "orbit_class": "HEO",
        "timestamp": "2025-11-30T09:33:02.501239+00:00"
      },
      "geometry": {
        "type": "Point",
        "coordinates": [
          NaN,
          NaN
        ]
      }
    },
    {
      "type": "Feature",
      "properties": {
        "OBJECT_NAME": "GALAXY 16 (G-16)",
        "OBJECT_ID": "2006-023A",
        "EPOCH": "2025-11-29T23:40:28.312320",
        "MEAN_MOTION": 1.00269359,
        "ECCENTRICITY": 0.0002916,
        "INCLINATION": 0.0176,
        "RA_OF_ASC_NODE": 97.6836,
        "ARG_OF_PERICENTER": 154.5679,
        "MEAN_ANOMALY": 72.968,
        "EPHEMERIS_TYPE": 0,
        "CLASSIFICATION_TYPE": "U",
        "NORAD_CAT_ID": 29236,
        "ELEMENT_SET_NO": 999,
        "REV_AT_EPOCH": 7097,
        "BSTAR": 0,
        "MEAN_MOTION_DOT": 0,
        "MEAN_MOTION_DDOT": 0,
        "norad_id": 29236,
        "name": "GALAXY 16 (G-16)",
        "group": "intelsat",
        "longitude_deg": NaN,
        "latitude_deg": NaN,
        "alt_km": NaN,
        "orbit_class": "HEO",
        "timestamp": "2025-11-30T09:33:02.501392+00:00"
      },
      "geometry": {
        "type": "Point",
        "coordinates": [
          NaN,
          NaN
        ]
      }
    },
    {
      "type": "Feature",
      "properties": {
        "OBJECT_NAME": "DIRECTV 9S",
        "OBJECT_ID": "2006-043A",
        "EPOCH": "2025-11-30T03:05:20.385024",
        "MEAN_MOTION": 1.00271036,
        "ECCENTRICITY": 0.0003028,
        "INCLINATION": 1.9046,
        "RA_OF_ASC_NODE": 83.3487,
        "ARG_OF_PERICENTER": 162.3872,
        "MEAN_ANOMALY": 128.6713,
        "EPHEMERIS_TYPE": 0,
        "CLASSIFICATION_TYPE": "U",
        "NORAD_CAT_ID": 29494,
        "ELEMENT_SET_NO": 999,
        "REV_AT_EPOCH": 4938,
        "BSTAR": 0,
        "MEAN_MOTION_DOT": -9.1e-07,
        "MEAN_MOTION_DDOT": 0,
        "norad_id": 29494,
        "name": "DIRECTV 9S",
        "group": "intelsat",
        "longitude_deg": NaN,
        "latitude_deg": NaN,
        "alt_km": NaN,
        "orbit_class": "HEO",
        "timestamp": "2025-11-30T09:33:02.501447+00:00"
      },
      "geometry": {
        "type": "Point",
        "coordinates": [
          NaN,
          NaN
        ]
      }
    },
    {
      "type": "Feature",
      "properties": {
        "OBJECT_NAME": "GALAXY 17 (G-17)",
        "OBJECT_ID": "2007-016B",
        "EPOCH": "2025-11-30T01:27:10.591200",
        "MEAN_MOTION": 1.00270155,
        "ECCENTRICITY": 0.0005977,
        "INCLINATION": 2.4652,
        "RA_OF_ASC_NODE": 82.4335,
        "ARG_OF_PERICENTER": 162.1377,
        "MEAN_ANOMALY": 121.426,
        "EPHEMERIS_TYPE": 0,
        "CLASSIFICATION_TYPE": "U",
        "NORAD_CAT_ID": 31307,
        "ELEMENT_SET_NO": 999,
        "REV_AT_EPOCH": 6780,
        "BSTAR": 0,
        "MEAN_MOTION_DOT": -1.84e-06,
        "MEAN_MOTION_DDOT": 0,
        "norad_id": 31307,
        "name": "GALAXY 17 (G-17)",
        "group": "intelsat",
        "longitude_deg": NaN,
        "latitude_deg": NaN,
        "alt_km": NaN,
        "orbit_class": "HEO",
        "timestamp": "2025-11-30T09:33:02.501604+00:00"
      },
      "geometry": {
        "type": "Point",
        "coordinates": [
          NaN,
          NaN
        ]
      }
    },
    {
      "type": "Feature",
      "properties": {
        "OBJECT_NAME": "DIRECTV 10",
        "OBJECT_ID": "2007-032A",
        "EPOCH": "2025-11-29T23:39:20.920320",
        "MEAN_MOTION": 1.0026956,
        "ECCENTRICITY": 3.6e-05,
        "INCLINATION": 0.0068,
        "RA_OF_ASC_NODE": 159.5705,
        "ARG_OF_PERICENTER": 359.8271,
        "MEAN_ANOMALY": 161.7773,
        "EPHEMERIS_TYPE": 0,
        "CLASSIFICATION_TYPE": "U",
        "NORAD_CAT_ID": 31862,
        "ELEMENT_SET_NO": 999,
        "REV_AT_EPOCH": 4359,
        "BSTAR": 0,
        "MEAN_MOTION_DOT": -8.1e-07,
        "MEAN_MOTION_DDOT": 0,
        "norad_id": 31862,
        "name": "DIRECTV 10",
        "group": "intelsat",
        "longitude_deg": NaN,
        "latitude_deg": NaN,
        "alt_km": NaN,
        "orbit_class": "HEO",
        "timestamp": "2025-11-30T09:33:02.501662+00:00"
      },
      "geometry": {
        "type": "Point",
        "coordinates": [
          NaN,
          NaN
        ]
      }
    }
  ]
}