INTELSAT 10-02          
1 28358U 04022A   25334.07717934  .00000010  00000+0  00000+0 0  9998
2 28358   0.0342  82.6896 0000960 186.6224 186.7022  1.00270297 78560
XM-3 (RHYTHM)           
1 28626U 05008A   25333.89812492 -.00000170  00000+0  00000+0 0  9993
2 28626   0.1381  80.3978 0000767 280.0026 207.1813  0.98955083 40623
DIRECTV 8               
1 28659U 05019A   25334.05386588  .00000022  00000+0  00000+0 0  9997
2 28659   0.0317  83.9247 0003111 169.3287  76.2990  1.00271187 75077
GALAXY 28 (G-28)        
1 28702U 05022A   25334.13122149 -.00000165  00000+0  00000+0 0  9999
2 28702   2.7864  81.4235 0002652 177.7033 128.6735  1.00271072 49975
GALAXY 16 (G-16)        
1 29236U 06023A   25333.98643880  .00000000  00000+0  00000+0 0  9993
2 29236   0.0176  97.6836 0002916 154.5679  72.9680  1.00269359 70972
DIRECTV 9S              
1 29494U 06043A   25334.12870816 -.00000091  00000+0  00000+0 0  9990
2 29494   1.9046  83.3487 0003028 162.3872 128.6713  1.00271036 49387
GALAXY 17 (G-17)        
1 31307U 07016B   25334.06053925 -.00000184  00000+0  00000+0 0  9997
2 31307   2.4652  82.4335 0005977 162.1377 121.4260  1.00270155 67803
DIRECTV 10              
1 31862U 07032A   25333.98565880 -.00000081  00000+0  00000+0 0  9995
2 31862   0.0068 159.5705 0000360 359.8271 161.7773  1.00269560 43594
